O3B FM5                 
1 39188U 13031A   22276.81787932 -.00000023  00000+0  00000+0 0  9995
2 39188   0.0634  17.1034 0002638 179.6078 163.2840  5.00115253169379
O3B FM4                 
1 39189U 13031B   22276.67399888 -.00000022  00000+0  00000+0 0  9998
2 39189   0.0514 351.9023 0002588 204.1847 163.9087  5.00115755169395
O3B FM2                 
1 39190U 13031C   22276.56551251 -.00000022  00000+0  00000+0 0  9992
2 39190   0.0517 346.2696 0002624 209.3482 164.3781  5.00115238169444
O3B PFM                 
1 39191U 13031D   22276.79171428 -.00000023  00000+0  00000+0 0  9993
2 39191   0.0571  11.0702 0002652 181.9969 166.9299  5.00115726169002
O3B FM3                 
1 40079U 14038A   22276.44671506 -.00000022  00000+0  00000+0 0  9991
2 40079   0.0541 359.7758 0004869 176.8427 183.3888  5.00115236145370
O3B FM7                 
1 40080U 14038B   22276.79256575 -.00000023  00000+0  00000+0 0  9997
2 40080   0.0563 355.7706 0001834 242.3039 121.9115  5.00115433150211
O3B FM6                 
1 40081U 14038C   22276.81894540 -.00000023  00000+0  00000+0 0  9991
2 40081   0.0531 359.2064 0002718 194.3965 166.3936  5.00115294150162
O3B FM8                 
1 40082U 14038D   22277.27264324 -.00000024  00000+0  00000+0 0  9995
2 40082   0.0511 356.5775 0002640 194.4043 169.0160  5.00115590150496
O3B FM10                
1 40348U 14083A   22276.69904470 -.00000022  00000+0  00000+0 0  9996
2 40348   0.0523   8.9558 0002638 183.8362 167.2053  5.00115098142220
O3B FM11                
1 40349U 14083B   22276.51260147 -.00000022  00000+0  00000+0 0  9994
2 40349   0.0570   7.7899 0002569 200.7611 151.4390  5.00115363142243
O3B FM12                
1 40350U 14083C   22276.53981420 -.00000022  00000+0  00000+0 0  9992
2 40350   0.0562   7.2373 0002773 188.3114 164.4468  5.00115203142258
O3B FM9                 
1 40351U 14083D   22276.56667882 -.00000022  00000+0  00000+0 0  9999
2 40351   0.0581   7.8805 0002611 186.1583 165.9579  5.00116081142404
DIAMOND RED             
1 42783U 17036U   22276.68566382  .00015961  00000+0  56614-3 0  9990
2 42783  97.1901 313.8113 0008460 311.3943  48.6569 15.29116210293476
DIAMOND GREEN           
1 42785U 17036W   22276.35917781  .00017502  00000+0  62058-3 0  9991
2 42785  97.1904 313.5593 0008266 314.3125  45.7437 15.29110467293413
DIAMOND BLUE            
1 42786U 17036X   22276.35828857  .00017390  00000+0  61675-3 0  9996
2 42786  97.1903 313.5505 0008359 314.9074  45.1487 15.29103744293417
LEO VANTAGE 1           
1 43113U 18004C   22277.21537569  .00005645  00000+0  45452-3 0  9995
2 43113  99.2424   8.8672 0399642 224.4239 132.4254 14.54207633240040
O3B FM15                
1 43231U 18024A   22276.43272872 -.00000022  00000+0  00000+0 0  9995
2 43231   0.0491  10.5172 0002945 184.3139 165.1643  5.00115966 83352
O3B FM16                
1 43232U 18024B   22277.08579320 -.00000023  00000+0  00000+0 0  9997
2 43232   0.0459  13.7092 0002926 182.3577 163.9275  5.00115806 83547
O3B FM14                
1 43233U 18024C   22275.92610613 -.00000021  00000+0  00000+0 0  9998
2 43233   0.0443  14.0923 0002773 183.2486 162.6540  5.00115245 83253
O3B FM13                
1 43234U 18024D   22276.37940584 -.00000022  00000+0  00000+0 0  9993
2 43234   0.0573  22.2789 0003737 178.3504 159.3597  5.00114910 83394
O3B FM20                
1 44112U 19020A   22276.95226442 -.00000023  00000+0  00000+0 0  9991
2 44112   0.0519   8.4328 0003119 193.3555 158.2022  5.00115366 64006
O3B FM19                
1 44113U 19020B   22276.77918623 -.00000023  00000+0  00000+0 0  9991
2 44113   0.0720  19.7963 0001663 196.0426 144.1538  5.00115076 63777
O3B FM17                
1 44114U 19020C   22276.65978881 -.00000022  00000+0  00000+0 0  9990
2 44114   0.0356 354.1610 0003063 201.1768 164.6568  5.00115494 63865
O3B FM18                
1 44115U 19020D   22276.40641126 -.00000022  00000+0  00000+0 0  9993
2 44115   0.0523   8.7010 0002887 184.0508 167.2450  5.00115669 63977
SALSAT                  
1 46495U 20068K   22276.82379358  .00004590  00000+0  32762-3 0  9998
2 46495  97.7366 218.2221 0014273 270.8067  89.1524 15.04953991110482
